{
  "links" : {
    "next" : "https://api.nasa.gov/neo/rest/v1/feed?start_date=2002-07-09&end_date=2002-07-09&detailed=true&api_key=t0TVs3DtDT2H8Oy2Zy8m2eVrNsAVKAexjcZXUckd",
    "prev" : "https://api.nasa.gov/neo/rest/v1/feed?start_date=2002-07-07&end_date=2002-07-07&detailed=true&api_key=t0TVs3DtDT2H8Oy2Zy8m2eVrNsAVKAexjcZXUckd",
    "self" : "https://api.nasa.gov/neo/rest/v1/feed?start_date=2002-07-08&end_date=2002-07-08&detailed=true&api_key=t0TVs3DtDT2H8Oy2Zy8m2eVrNsAVKAexjcZXUckd"
  },
  "element_count" : 4,
  "near_earth_objects" : {
    "2002-07-08" : [ {
      "links" : {
        "self" : "https://api.nasa.gov/neo/rest/v1/neo/3127392?api_key=t0TVs3DtDT2H8Oy2Zy8m2eVrNsAVKAexjcZXUckd"
      },
      "neo_reference_id" : "3127392",
      "name" : "(2002 LG3)",
      "nasa_jpl_url" : "http://ssd.jpl.nasa.gov/sbdb.cgi?sstr=3127392",
      "absolute_magnitude_h" : 19.6,
      "estimated_diameter" : {
        "kilometers" : {
          "estimated_diameter_min" : 0.3195618867,
          "estimated_diameter_max" : 0.7145621017
        },
        "meters" : {
          "estimated_diameter_min" : 319.5618867213,
          "estimated_diameter_max" : 714.5621017269
        },
        "miles" : {
          "estimated_diameter_min" : 0.1985664891,
          "estimated_diameter_max" : 0.4440081677
        },
        "feet" : {
          "estimated_diameter_min" : 1048.4314204307,
          "estimated_diameter_max" : 2344.3639258298
        }
      },
      "is_potentially_hazardous_asteroid" : false,
      "close_approach_data" : [ {
        "close_approach_date" : "2002-07-08",
        "epoch_date_close_approach" : 1026111600000,
        "relative_velocity" : {
          "kilometers_per_second" : "16.2749496493",
          "kilometers_per_hour" : "58589.8187375804",
          "miles_per_hour" : "36405.4348705816"
        },
        "miss_distance" : {
          "astronomical" : "0.2207054756",
          "lunar" : "85.8544311523",
          "kilometers" : "33017070",
          "miles" : "20515856"
        },
        "orbiting_body" : "Earth"
      } ],
      "orbital_data" : {
        "orbit_id" : "20",
        "orbit_determination_date" : "2017-04-06 09:15:06",
        "orbit_uncertainty" : "5",
        "minimum_orbit_intersection" : ".103543",
        "jupiter_tisserand_invariant" : "3.094",
        "epoch_osculation" : "2458000.5",
        "eccentricity" : ".7491915026924204",
        "semi_major_axis" : "2.357709844355322",
        "inclination" : "6.140257460853077",
        "ascending_node_longitude" : "182.3095388275924",
        "orbital_period" : "1322.312069892207",
        "perihelion_distance" : ".5913336631500458",
        "perihelion_argument" : "174.4472962298166",
        "aphelion_distance" : "4.124086025560599",
        "perihelion_time" : "2457816.984207360763",
        "mean_anomaly" : "49.96224934671508",
        "mean_motion" : ".2722504075980693",
        "equinox" : "J2000"
      }
    }, {
      "links" : {
        "self" : "https://api.nasa.gov/neo/rest/v1/neo/3127393?api_key=t0TVs3DtDT2H8Oy2Zy8m2eVrNsAVKAexjcZXUckd"
      },
      "neo_reference_id" : "3127393",
      "name" : "(2002 LH3)",
      "nasa_jpl_url" : "http://ssd.jpl.nasa.gov/sbdb.cgi?sstr=3127393",
      "absolute_magnitude_h" : 20.3,
      "estimated_diameter" : {
        "kilometers" : {
          "estimated_diameter_min" : 0.2315021222,
          "estimated_diameter_max" : 0.5176544822
        },
        "meters" : {
          "estimated_diameter_min" : 231.5021222103,
          "estimated_diameter_max" : 517.6544821978
        },
        "miles" : {
          "estimated_diameter_min" : 0.1438487052,
          "estimated_diameter_max" : 0.3216554833
        },
        "feet" : {
          "estimated_diameter_min" : 759.5214226325,
          "estimated_diameter_max" : 1698.3415313737
        }
      },
      "is_potentially_hazardous_asteroid" : false,
      "close_approach_data" : [ {
        "close_approach_date" : "2002-07-08",
        "epoch_date_close_approach" : 1026111600000,
        "relative_velocity" : {
          "kilometers_per_second" : "5.2397403195",
          "kilometers_per_hour" : "18863.0651502051",
          "miles_per_hour" : "11720.7751206927"
        },
        "miss_distance" : {
          "astronomical" : "0.1486608179",
          "lunar" : "57.8290596008",
          "kilometers" : "22239342",
          "miles" : "13818887"
        },
        "orbiting_body" : "Earth"
      } ],
      "orbital_data" : {
        "orbit_id" : "25",
        "orbit_determination_date" : "2017-04-06 09:15:05",
        "orbit_uncertainty" : "1",
        "minimum_orbit_intersection" : ".14668",
        "jupiter_tisserand_invariant" : "3.582",
        "epoch_osculation" : "2458000.5",
        "eccentricity" : ".4548568073014248",
        "semi_major_axis" : "2.122247958558402",
        "inclination" : "6.394433373596701",
        "ascending_node_longitude" : "87.31204456517915",
        "orbital_period" : "1129.256537895668",
        "perihelion_distance" : "1.156929027826561",
        "perihelion_argument" : "202.9610110242714",
        "aphelion_distance" : "3.087566889290243",
        "perihelion_time" : "2458118.154995144178",
        "mean_anomaly" : "322.492315226412",
        "mean_motion" : ".3187938151510268",
        "equinox" : "J2000"
      }
    }, {
      "links" : {
        "self" : "https://api.nasa.gov/neo/rest/v1/neo/3672464?api_key=t0TVs3DtDT2H8Oy2Zy8m2eVrNsAVKAexjcZXUckd"
      },
      "neo_reference_id" : "3672464",
      "name" : "(2014 KM39)",
      "nasa_jpl_url" : "http://ssd.jpl.nasa.gov/sbdb.cgi?sstr=3672464",
      "absolute_magnitude_h" : 24.4,
      "estimated_diameter" : {
        "kilometers" : {
          "estimated_diameter_min" : 0.0350392641,
          "estimated_diameter_max" : 0.0783501764
        },
        "meters" : {
          "estimated_diameter_min" : 35.0392641108,
          "estimated_diameter_max" : 78.3501764334
        },
        "miles" : {
          "estimated_diameter_min" : 0.0217723826,
          "estimated_diameter_max" : 0.0486845275
        },
        "feet" : {
          "estimated_diameter_min" : 114.9582192654,
          "estimated_diameter_max" : 257.0543928497
        }
      },
      "is_potentially_hazardous_asteroid" : false,
      "close_approach_data" : [ {
        "close_approach_date" : "2002-07-08",
        "epoch_date_close_approach" : 1026111600000,
        "relative_velocity" : {
          "kilometers_per_second" : "9.0871887528",
          "kilometers_per_hour" : "32713.8795099366",
          "miles_per_hour" : "20327.1325210492"
        },
        "miss_distance" : {
          "astronomical" : "0.3096221562",
          "lunar" : "120.4430236816",
          "kilometers" : "46318816",
          "miles" : "28781178"
        },
        "orbiting_body" : "Earth"
      } ],
      "orbital_data" : {
        "orbit_id" : "8",
        "orbit_determination_date" : "2017-04-06 08:40:23",
        "orbit_uncertainty" : "5",
        "minimum_orbit_intersection" : ".0160037",
        "jupiter_tisserand_invariant" : "6.491",
        "epoch_osculation" : "2458000.5",
        "eccentricity" : ".3761644745733882",
        "semi_major_axis" : ".9068521892397418",
        "inclination" : "13.31622745553155",
        "ascending_node_longitude" : "233.9190160095591",
        "orbital_period" : "315.4301376893373",
        "perihelion_distance" : ".5657266119586475",
        "perihelion_argument" : "228.0179551541186",
        "aphelion_distance" : "1.247977766520836",
        "perihelion_time" : "2457973.238212732939",
        "mean_anomaly" : "31.11384184160581",
        "mean_motion" : "1.141298680706784",
        "equinox" : "J2000"
      }
    }, {
      "links" : {
        "self" : "https://api.nasa.gov/neo/rest/v1/neo/3711174?api_key=t0TVs3DtDT2H8Oy2Zy8m2eVrNsAVKAexjcZXUckd"
      },
      "neo_reference_id" : "3711174",
      "name" : "(2015 DD155)",
      "nasa_jpl_url" : "http://ssd.jpl.nasa.gov/sbdb.cgi?sstr=3711174",
      "absolute_magnitude_h" : 21.8,
      "estimated_diameter" : {
        "kilometers" : {
          "estimated_diameter_min" : 0.1160259082,
          "estimated_diameter_max" : 0.2594418179
        },
        "meters" : {
          "estimated_diameter_min" : 116.0259082094,
          "estimated_diameter_max" : 259.4418179074
        },
        "miles" : {
          "estimated_diameter_min" : 0.0720951346,
          "estimated_diameter_max" : 0.1612096218
        },
        "feet" : {
          "estimated_diameter_min" : 380.6624406898,
          "estimated_diameter_max" : 851.1870938635
        }
      },
      "is_potentially_hazardous_asteroid" : false,
      "close_approach_data" : [ {
        "close_approach_date" : "2002-07-08",
        "epoch_date_close_approach" : 1026111600000,
        "relative_velocity" : {
          "kilometers_per_second" : "3.6558717778",
          "kilometers_per_hour" : "13161.1384000931",
          "miles_per_hour" : "8177.819579769"
        },
        "miss_distance" : {
          "astronomical" : "0.3235575539",
          "lunar" : "125.8638916016",
          "kilometers" : "48403520",
          "miles" : "30076554"
        },
        "orbiting_body" : "Earth"
      } ],
      "orbital_data" : {
        "orbit_id" : "10",
        "orbit_determination_date" : "2017-04-06 08:35:30",
        "orbit_uncertainty" : "5",
        "minimum_orbit_intersection" : ".229674",
        "jupiter_tisserand_invariant" : "5.022",
        "epoch_osculation" : "2458000.5",
        "eccentricity" : ".05238320957488177",
        "semi_major_axis" : "1.290579076751076",
        "inclination" : "5.671502216917117",
        "ascending_node_longitude" : "14.51973780354946",
        "orbital_period" : "535.5195828897369",
        "perihelion_distance" : "1.222974402500667",
        "perihelion_argument" : "25.96996684997248",
        "aphelion_distance" : "1.358183751001485",
        "perihelion_time" : "2457983.976487727841",
        "mean_anomaly" : "11.10783733785905",
        "mean_motion" : ".6722443240215247",
        "equinox" : "J2000"
      }
    } ]
  }
}